{"type": "FeatureCollection", "features": [ {"type": "Feature", "properties": {"norad_id": 39122, "name": "EUTELSAT 117 WEST A", "group": "eutelsat", "lat": 0.040012526135655625, "lon": 61.5342877171457, "alt_km": 35795.79325466861, "timestamp": "2025-12-22T05:49:03.154076+00:00", "meta": {"OBJECT_NAME": "EUTELSAT 117 WEST A", "OBJECT_ID": "2013-012A", "EPOCH": "2025-12-21T16:04:01.267104", "MEAN_MOTION": 1.00270573, "ECCENTRICITY": 0.0002607, "INCLINATION": 0.0274, "RA_OF_ASC_NODE": 305.9295, "ARG_OF_PERICENTER": 327.327, "MEAN_ANOMALY": 301.4494, "EPHEMERIS_TYPE": 0, "CLASSIFICATION_TYPE": "U", "NORAD_CAT_ID": 39122, "ELEMENT_SET_NO": 999, "REV_AT_EPOCH": 4665, "BSTAR": 0, "MEAN_MOTION_DOT": 1e-07, "MEAN_MOTION_DDOT": 0}, "tle": {"line1": "1 39122U 13012A   25355.66945911  .00000010  00000+0  00000+0 0  9994", "line2": "2 39122   0.0274 305.9295 0002607 327.3270 301.4494  1.00270573 46655"}}, "geometry": {"type": "Point", "coordinates": [61.5342877171457, 0.040012526135655625]}}, {"type": "Feature", "properties": {"norad_id": 39163, "name": "EUTELSAT 7B", "group": "eutelsat", "lat": -0.004213843548264286, "lon": -174.73528630568651, "alt_km": 35799.747156053054, "timestamp": "2025-12-22T05:49:03.154089+00:00", "meta": {"OBJECT_NAME": "EUTELSAT 7B", "OBJECT_ID": "2013-022A", "EPOCH": "2025-12-21T18:22:03.973728", "MEAN_MOTION": 1.0027108, "ECCENTRICITY": 0.00044, "INCLINATION": 0.0652, "RA_OF_ASC_NODE": 2.192, "ARG_OF_PERICENTER": 320.1246, "MEAN_ANOMALY": 50.7744, "EPHEMERIS_TYPE": 0, "CLASSIFICATION_TYPE": "U", "NORAD_CAT_ID": 39163, "ELEMENT_SET_NO": 999, "REV_AT_EPOCH": 4616, "BSTAR": 0, "MEAN_MOTION_DOT": 7e-07, "MEAN_MOTION_DDOT": 0}, "tle": {"line1": "1 39163U 13022A   25355.76532377  .00000070  00000+0  00000+0 0  9995", "line2": "2 39163   0.0652   2.1920 0004400 320.1246  50.7744  1.00271080 46160"}}, "geometry": {"type": "Point", "coordinates": [-174.73528630568651, -0.004213843548264286]}}, {"type": "Feature", "properties": {"norad_id": 39612, "name": "EXPRESS-AT1", "group": "eutelsat", "lat": -0.03539626396823402, "lon": -125.6812330108727, "alt_km": 35785.87882159204, "timestamp": "2025-12-22T05:49:03.154101+00:00", "meta": {"OBJECT_NAME": "EXPRESS-AT1", "OBJECT_ID": "2014-010A", "EPOCH": "2025-12-21T20:18:45.300960", "MEAN_MOTION": 1.00272781, "ECCENTRICITY": 8.33e-05, "INCLINATION": 0.0213, "RA_OF_ASC_NODE": 309.5573, "ARG_OF_PERICENTER": 193.3107, "MEAN_ANOMALY": 308.4826, "EPHEMERIS_TYPE": 0, "CLASSIFICATION_TYPE": "U", "NORAD_CAT_ID": 39612, "ELEMENT_SET_NO": 999, "REV_AT_EPOCH": 4304, "BSTAR": 0, "MEAN_MOTION_DOT": 1.01e-06, "MEAN_MOTION_DDOT": 0}, "tle": {"line1": "1 39612U 14010A   25355.84635765  .00000101  00000+0  00000+0 0  9991", "line2": "2 39612   0.0213 309.5573 0000833 193.3107 308.4826  1.00272781 43049"}}, "geometry": {"type": "Point", "coordinates": [-125.6812330108727, -0.03539626396823402]}}, {"type": "Feature", "properties": {"norad_id": 39613, "name": "EXPRESS-AT2", "group": "eutelsat", "lat": -0.015700248894752574, "lon": -41.83853408497977, "alt_km": 35782.32756960761, "timestamp": "2025-12-22T05:49:03.154113+00:00", "meta": {"OBJECT_NAME": "EXPRESS-AT2", "OBJECT_ID": "2014-010B", "EPOCH": "2025-12-21T03:35:19.372992", "MEAN_MOTION": 1.00270951, "ECCENTRICITY": 0.00010602, "INCLINATION": 0.019, "RA_OF_ASC_NODE": 327.4725, "ARG_OF_PERICENTER": 327.2965, "MEAN_ANOMALY": 348.8895, "EPHEMERIS_TYPE": 0, "CLASSIFICATION_TYPE": "U", "NORAD_CAT_ID": 39613, "ELEMENT_SET_NO": 999, "REV_AT_EPOCH": 4271, "BSTAR": 0, "MEAN_MOTION_DOT": -2.58e-06, "MEAN_MOTION_DDOT": 0}, "tle": {"line1": "1 39613U 14010B   25355.14952978 -.00000258  00000+0  00000+0 0  9997", "line2": "2 39613   0.0190 327.4725 0001060 327.2965 348.8895  1.00270951 42719"}}, "geometry": {"type": "Point", "coordinates": [-41.83853408497977, -0.015700248894752574]}}, {"type": "Feature", "properties": {"norad_id": 39773, "name": "EUTELSAT 3B", "group": "eutelsat", "lat": 0.010540226341153784, "lon": -178.63187988217223, "alt_km": 35775.2043157321, "timestamp": "2025-12-22T05:49:03.154125+00:00", "meta": {"OBJECT_NAME": "EUTELSAT 3B", "OBJECT_ID": "2014-030A", "EPOCH": "2025-12-21T18:20:56.581728", "MEAN_MOTION": 1.00272747, "ECCENTRICITY": 0.0004134, "INCLINATION": 0.0615, "RA_OF_ASC_NODE": 9.4903, "ARG_OF_PERICENTER": 224.2782, "MEAN_ANOMALY": 135.1447, "EPHEMERIS_TYPE": 0, "CLASSIFICATION_TYPE": "U", "NORAD_CAT_ID": 39773, "ELEMENT_SET_NO": 999, "REV_AT_EPOCH": 4228, "BSTAR": 0, "MEAN_MOTION_DOT": 4.2e-07, "MEAN_MOTION_DDOT": 0}, "tle": {"line1": "1 39773U 14030A   25355.76454377  .00000042  00000+0  00000+0 0  9994", "line2": "2 39773   0.0615   9.4903 0004134 224.2782 135.1447  1.00272747 42288"}}, "geometry": {"type": "Point", "coordinates": [-178.63187988217223, 0.010540226341153784]}}, {"type": "Feature", "properties": {"norad_id": 40425, "name": "EUTELSAT 115 WEST B", "group": "eutelsat", "lat": -0.009570139512082597, "lon": 63.40170759792543, "alt_km": 35787.05024785741, "timestamp": "2025-12-22T05:49:03.154137+00:00", "meta": {"OBJECT_NAME": "EUTELSAT 115 WEST B", "OBJECT_ID": "2015-010B", "EPOCH": "2025-12-21T14:21:48.555360", "MEAN_MOTION": 1.00270264, "ECCENTRICITY": 3.32e-05, "INCLINATION": 0.0122, "RA_OF_ASC_NODE": 156.3185, "ARG_OF_PERICENTER": 153.7711, "MEAN_ANOMALY": 240.874, "EPHEMERIS_TYPE": 0, "CLASSIFICATION_TYPE": "U", "NORAD_CAT_ID": 40425, "ELEMENT_SET_NO": 999, "REV_AT_EPOCH": 3961, "BSTAR": 0, "MEAN_MOTION_DOT": -2e-08, "MEAN_MOTION_DDOT": 0}, "tle": {"line1": "1 40425U 15010B   25355.59847865 -.00000002  00000+0  00000+0 0  9995", "line2": "2 40425   0.0122 156.3185 0000332 153.7711 240.8740  1.00270264 39610"}}, "geometry": {"type": "Point", "coordinates": [63.40170759792543, -0.009570139512082597]}}, {"type": "Feature", "properties": {"norad_id": 40875, "name": "EUTELSAT 8 WEST B", "group": "eutelsat", "lat": 0.017973456239843623, "lon": 170.25866626391314, "alt_km": 35789.83224430999, "timestamp": "2025-12-22T05:49:03.154149+00:00", "meta": {"OBJECT_NAME": "EUTELSAT 8 WEST B", "OBJECT_ID": "2015-039B", "EPOCH": "2025-12-21T18:17:41.893152", "MEAN_MOTION": 1.00271124, "ECCENTRICITY": 0.0004263, "INCLINATION": 0.0634, "RA_OF_ASC_NODE": 1.1645, "ARG_OF_PERICENTER": 270.5037, "MEAN_ANOMALY": 85.3354, "EPHEMERIS_TYPE": 0, "CLASSIFICATION_TYPE": "U", "NORAD_CAT_ID": 40875, "ELEMENT_SET_NO": 999, "REV_AT_EPOCH": 3787, "BSTAR": 0, "MEAN_MOTION_DOT": -4.3e-07, "MEAN_MOTION_DDOT": 0}, "tle": {"line1": "1 40875U 15039B   25355.76229043 -.00000043  00000+0  00000+0 0  9991", "line2": "2 40875   0.0634   1.1645 0004263 270.5037  85.3354  1.00271124 37876"}}, "geometry": {"type": "Point", "coordinates": [170.25866626391314, 0.017973456239843623]}}, {"type": "Feature", "properties": {"norad_id": 41310, "name": "EUTELSAT 9B", "group": "eutelsat", "lat": 0.05747085130160526, "lon": -172.74415952992504, "alt_km": 35785.29763614571, "timestamp": "2025-12-22T05:49:03.154161+00:00", "meta": {"OBJECT_NAME": "EUTELSAT 9B", "OBJECT_ID": "2016-005A", "EPOCH": "2025-12-21T18:22:33.926016", "MEAN_MOTION": 1.0027297, "ECCENTRICITY": 0.0004489, "INCLINATION": 0.0649, "RA_OF_ASC_NODE": 72.3824, "ARG_OF_PERICENTER": 203.7054, "MEAN_ANOMALY": 99.1333, "EPHEMERIS_TYPE": 0, "CLASSIFICATION_TYPE": "U", "NORAD_CAT_ID": 41310, "ELEMENT_SET_NO": 999, "REV_AT_EPOCH": 3633, "BSTAR": 0, "MEAN_MOTION_DOT": 8.4e-07, "MEAN_MOTION_DDOT": 0}, "tle": {"line1": "1 41310U 16005A   25355.76567044  .00000084  00000+0  00000+0 0  9990", "line2": "2 41310   0.0649  72.3824 0004489 203.7054  99.1333  1.00272970 36333"}}, "geometry": {"type": "Point", "coordinates": [-172.74415952992504, 0.05747085130160526]}}, {"type": "Feature", "properties": {"norad_id": 41382, "name": "EUTELSAT 65 WEST A", "group": "eutelsat", "lat": 0.05642766292639848, "lon": 113.10647001473653, "alt_km": 35794.19508749033, "timestamp": "2025-12-22T05:49:03.154172+00:00", "meta": {"OBJECT_NAME": "EUTELSAT 65 WEST A", "OBJECT_ID": "2016-014A", "EPOCH": "2025-12-21T18:01:28.445952", "MEAN_MOTION": 1.00273551, "ECCENTRICITY": 0.0002143, "INCLINATION": 0.0518, "RA_OF_ASC_NODE": 335.1829, "ARG_OF_PERICENTER": 298.4226, "MEAN_ANOMALY": 22.135, "EPHEMERIS_TYPE": 0, "CLASSIFICATION_TYPE": "U", "NORAD_CAT_ID": 41382, "ELEMENT_SET_NO": 999, "REV_AT_EPOCH": 3575, "BSTAR": 0, "MEAN_MOTION_DOT": -2.54e-06, "MEAN_MOTION_DDOT": 0}, "tle": {"line1": "1 41382U 16014A   25355.75102368 -.00000254  00000+0  00000+0 0  9992", "line2": "2 41382   0.0518 335.1829 0002143 298.4226  22.1350  1.00273551 35755"}}, "geometry": {"type": "Point", "coordinates": [113.10647001473653, 0.05642766292639848]}}, {"type": "Feature", "properties": {"norad_id": 41589, "name": "EUTELSAT 117 WEST B", "group": "eutelsat", "lat": -0.010087652640823678, "lon": 61.31741097095936, "alt_km": 35787.13414963786, "timestamp": "2025-12-22T05:49:03.154184+00:00", "meta": {"OBJECT_NAME": "EUTELSAT 117 WEST B", "OBJECT_ID": "2016-038B", "EPOCH": "2025-12-21T16:03:53.778816", "MEAN_MOTION": 1.00269911, "ECCENTRICITY": 3.48e-05, "INCLINATION": 0.0115, "RA_OF_ASC_NODE": 156.0506, "ARG_OF_PERICENTER": 153.6683, "MEAN_ANOMALY": 264.7522, "EPHEMERIS_TYPE": 0, "CLASSIFICATION_TYPE": "U", "NORAD_CAT_ID": 41589, "ELEMENT_SET_NO": 999, "REV_AT_EPOCH": 3488, "BSTAR": 0, "MEAN_MOTION_DOT": 1.1e-07, "MEAN_MOTION_DDOT": 0}, "tle": {"line1": "1 41589U 16038B   25355.66937244  .00000011  00000+0  00000+0 0  9996", "line2": "2 41589   0.0115 156.0506 0000348 153.6683 264.7522  1.00269911 34886"}}, "geometry": {"type": "Point", "coordinates": [61.31741097095936, -0.010087652640823678]}}]}